{
  "type": "FeatureCollection",
  "features": [
    {
      "type": "Feature",
      "properties": {
        "norad_id": 35446,
        "name": "COSMOS 2251 DEB",
        "group": "cosmos-2251-debris",
        "lat": -4.575658103949146,
        "lon": -71.23085024971145,
        "alt_km": 678.4993253729299,
        "timestamp": "2025-12-27T14:26:30.917560+00:00",
        "meta_object_name": "COSMOS 2251 DEB",
        "meta_object_id": "1993-036AKQ",
        "meta_epoch": "2025-12-27T01:15:32.645952",
        "meta_mean_motion": 14.54644563,
        "meta_eccentricity": 0.00748148,
        "meta_inclination": 74.0474,
        "meta_ra_of_asc_node": 291.119,
        "meta_arg_of_pericenter": 45.2371,
        "meta_mean_anomaly": 315.4845,
        "meta_ephemeris_type": 0,
        "meta_classification_type": "U",
        "meta_norad_cat_id": 35446,
        "meta_element_set_no": 999,
        "meta_rev_at_epoch": 88216,
        "meta_bstar": 0.00014918136,
        "meta_mean_motion_dot": 6.32e-06,
        "meta_mean_motion_ddot": 0,
        "tle_line1": "1 35446U 93036AKQ 25361.05246118  .00000632  00000+0  14918-3 0  9993",
        "tle_line2": "2 35446  74.0474 291.1190 0074814  45.2371 315.4845 14.54644563882166"
      },
      "geometry": {
        "type": "Point",
        "coordinates": [
          -71.23085024971145,
          -4.575658103949146
        ]
      }
    },
    {
      "type": "Feature",
      "properties": {
        "norad_id": 35448,
        "name": "COSMOS 2251 DEB",
        "group": "cosmos-2251-debris",
        "lat": -17.77573356592546,
        "lon": -113.50884368530778,
        "alt_km": 710.091648889802,
        "timestamp": "2025-12-27T14:26:30.917570+00:00",
        "meta_object_name": "COSMOS 2251 DEB",
        "meta_object_id": "1993-036AKS",
        "meta_epoch": "2025-12-26T14:25:10.468704",
        "meta_mean_motion": 14.54377943,
        "meta_eccentricity": 0.0012168,
        "meta_inclination": 73.903,
        "meta_ra_of_asc_node": 63.0866,
        "meta_arg_of_pericenter": 247.5607,
        "meta_mean_anomaly": 112.4267,
        "meta_ephemeris_type": 0,
        "meta_classification_type": "U",
        "meta_norad_cat_id": 35448,
        "meta_element_set_no": 999,
        "meta_rev_at_epoch": 87536,
        "meta_bstar": 0.0010063,
        "meta_mean_motion_dot": 4.254e-05,
        "meta_mean_motion_ddot": 0,
        "tle_line1": "1 35448U 93036AKS 25360.60081561  .00004254  00000+0  10063-2 0  9994",
        "tle_line2": "2 35448  73.9030  63.0866 0012168 247.5607 112.4267 14.54377943875365"
      },
      "geometry": {
        "type": "Point",
        "coordinates": [
          -113.50884368530778,
          -17.77573356592546
        ]
      }
    },
    {
      "type": "Feature",
      "properties": {
        "norad_id": 35451,
        "name": "COSMOS 2251 DEB",
        "group": "cosmos-2251-debris",
        "lat": -69.59958775541823,
        "lon": 19.72609426213085,
        "alt_km": 437.49300355099876,
        "timestamp": "2025-12-27T14:26:30.917580+00:00",
        "meta_object_name": "COSMOS 2251 DEB",
        "meta_object_id": "1993-036AKV",
        "meta_epoch": "2025-12-22T16:02:09.713472",
        "meta_mean_motion": 15.36538479,
        "meta_eccentricity": 0.00416089,
        "meta_inclination": 73.9322,
        "meta_ra_of_asc_node": 81.2046,
        "meta_arg_of_pericenter": 326.0524,
        "meta_mean_anomaly": 33.8019,
        "meta_ephemeris_type": 0,
        "meta_classification_type": "U",
        "meta_norad_cat_id": 35451,
        "meta_element_set_no": 999,
        "meta_rev_at_epoch": 67558,
        "meta_bstar": 0.0014760448,
        "meta_mean_motion_dot": 0.00054537,
        "meta_mean_motion_ddot": 0,
        "tle_line1": "1 35451U 93036AKV 25356.66816798  .00054537  00000+0  14760-2 0  9994",
        "tle_line2": "2 35451  73.9322  81.2046 0041608 326.0524  33.8019 15.36538479675584"
      },
      "geometry": {
        "type": "Point",
        "coordinates": [
          19.72609426213085,
          -69.59958775541823
        ]
      }
    },
    {
      "type": "Feature",
      "properties": {
        "norad_id": 35453,
        "name": "COSMOS 2251 DEB",
        "group": "cosmos-2251-debris",
        "lat": 71.54430069942374,
        "lon": 113.73272236979422,
        "alt_km": 714.0285096268708,
        "timestamp": "2025-12-27T14:26:30.917591+00:00",
        "meta_object_name": "COSMOS 2251 DEB",
        "meta_object_id": "1993-036AKX",
        "meta_epoch": "2025-12-16T19:11:22.117056",
        "meta_mean_motion": 14.38003213,
        "meta_eccentricity": 0.00669431,
        "meta_inclination": 74.0096,
        "meta_ra_of_asc_node": 12.8823,
        "meta_arg_of_pericenter": 145.8531,
        "meta_mean_anomaly": 214.6957,
        "meta_ephemeris_type": 0,
        "meta_classification_type": "U",
        "meta_norad_cat_id": 35453,
        "meta_element_set_no": 999,
        "meta_rev_at_epoch": 86277,
        "meta_bstar": 0.00051941791,
        "meta_mean_motion_dot": 1.586e-05,
        "meta_mean_motion_ddot": 0,
        "tle_line1": "1 35453U 93036AKX 25350.79956154  .00001586  00000+0  51942-3 0  9995",
        "tle_line2": "2 35453  74.0096  12.8823 0066943 145.8531 214.6957 14.38003213862776"
      },
      "geometry": {
        "type": "Point",
        "coordinates": [
          113.73272236979422,
          71.54430069942374
        ]
      }
    },
    {
      "type": "Feature",
      "properties": {
        "norad_id": 35455,
        "name": "COSMOS 2251 DEB",
        "group": "cosmos-2251-debris",
        "lat": -24.46724158213601,
        "lon": 94.38791693624277,
        "alt_km": 799.60970476496,
        "timestamp": "2025-12-27T14:26:30.917601+00:00",
        "meta_object_name": "COSMOS 2251 DEB",
        "meta_object_id": "1993-036AKZ",
        "meta_epoch": "2025-12-27T03:33:30.254976",
        "meta_mean_motion": 14.49569648,
        "meta_eccentricity": 0.01000448,
        "meta_inclination": 74.0278,
        "meta_ra_of_asc_node": 267.7507,
        "meta_arg_of_pericenter": 7.9595,
        "meta_mean_anomaly": 352.3123,
        "meta_ephemeris_type": 0,
        "meta_classification_type": "U",
        "meta_norad_cat_id": 35455,
        "meta_element_set_no": 999,
        "meta_rev_at_epoch": 86752,
        "meta_bstar": 0.0016070253,
        "meta_mean_motion_dot": 6.552e-05,
        "meta_mean_motion_ddot": 0,
        "tle_line1": "1 35455U 93036AKZ 25361.14826684  .00006552  00000+0  16070-2 0  9992",
        "tle_line2": "2 35455  74.0278 267.7507 0100044   7.9595 352.3123 14.49569648867523"
      },
      "geometry": {
        "type": "Point",
        "coordinates": [
          94.38791693624277,
          -24.46724158213601
        ]
      }
    },
    {
      "type": "Feature",
      "properties": {
        "norad_id": 35456,
        "name": "COSMOS 2251 DEB",
        "group": "cosmos-2251-debris",
        "lat": -18.734309651165635,
        "lon": -85.86587935615417,
        "alt_km": 671.1500855479244,
        "timestamp": "2025-12-27T14:26:30.917611+00:00",
        "meta_object_name": "COSMOS 2251 DEB",
        "meta_object_id": "1993-036ALA",
        "meta_epoch": "2025-12-23T00:04:26.032512",
        "meta_mean_motion": 14.69618117,
        "meta_eccentricity": 0.00667181,
        "meta_inclination": 73.9512,
        "meta_ra_of_asc_node": 97.4858,
        "meta_arg_of_pericenter": 305.2899,
        "meta_mean_anomaly": 54.2041,
        "meta_ephemeris_type": 0,
        "meta_classification_type": "U",
        "meta_norad_cat_id": 35456,
        "meta_element_set_no": 999,
        "meta_rev_at_epoch": 66026,
        "meta_bstar": 0.0018731177,
        "meta_mean_motion_dot": 0.00011509,
        "meta_mean_motion_ddot": 0,
        "tle_line1": "1 35456U 93036ALA 25357.00307908  .00011509  00000+0  18731-2 0  9990",
        "tle_line2": "2 35456  73.9512  97.4858 0066718 305.2899  54.2041 14.69618117660267"
      },
      "geometry": {
        "type": "Point",
        "coordinates": [
          -85.86587935615417,
          -18.734309651165635
        ]
      }
    },
    {
      "type": "Feature",
      "properties": {
        "norad_id": 35459,
        "name": "COSMOS 2251 DEB",
        "group": "cosmos-2251-debris",
        "lat": -50.35430223881122,
        "lon": 139.22055389421834,
        "alt_km": 783.7163453759049,
        "timestamp": "2025-12-27T14:26:30.917622+00:00",
        "meta_object_name": "COSMOS 2251 DEB",
        "meta_object_id": "1993-036ALD",
        "meta_epoch": "2025-12-27T04:40:05.945664",
        "meta_mean_motion": 14.37485137,
        "meta_eccentricity": 0.00159276,
        "meta_inclination": 73.8699,
        "meta_ra_of_asc_node": 160.4185,
        "meta_arg_of_pericenter": 103.1791,
        "meta_mean_anomaly": 257.114,
        "meta_ephemeris_type": 0,
        "meta_classification_type": "U",
        "meta_norad_cat_id": 35459,
        "meta_element_set_no": 999,
        "meta_rev_at_epoch": 58569,
        "meta_bstar": 0.00032353185,
        "meta_mean_motion_dot": 9.43e-06,
        "meta_mean_motion_ddot": 0,
        "tle_line1": "1 35459U 93036ALD 25361.19451326  .00000943  00000+0  32353-3 0  9999",
        "tle_line2": "2 35459  73.8699 160.4185 0015927 103.1791 257.1140 14.37485137585697"
      },
      "geometry": {
        "type": "Point",
        "coordinates": [
          139.22055389421834,
          -50.35430223881122
        ]
      }
    }
  ]
}